[{"OBJECT_NAME":"STARLINK-31629","OBJECT_ID":"2024-050B","EPOCH":"2026-03-09T14:17:52.970208","MEAN_MOTION":15.30181219,"ECCENTRICITY":0.0001154,"INCLINATION":53.1601,"RA_OF_ASC_NODE":181.4675,"ARG_OF_PERICENTER":93.6915,"MEAN_ANOMALY":266.4217,"EPHEMERIS_TYPE":0,"CLASSIFICATION_TYPE":"U","NORAD_CAT_ID":59255,"ELEMENT_SET_NO":999,"REV_AT_EPOCH":11053,"BSTAR":2.9326e-5,"MEAN_MOTION_DOT":5.09e-6,"MEAN_MOTION_DDOT":0},{"OBJECT_NAME":"239ALFEROV (RS61S)","OBJECT_ID":"2025-155F","EPOCH":"2026-03-09T21:46:33.382848","MEAN_MOTION":15.29933217,"ECCENTRICITY":0.00084878,"INCLINATION":97.4469,"RA_OF_ASC_NODE":37.6373,"ARG_OF_PERICENTER":151.5904,"MEAN_ANOMALY":208.58,"EPHEMERIS_TYPE":0,"CLASSIFICATION_TYPE":"U","NORAD_CAT_ID":64881,"ELEMENT_SET_NO":999,"REV_AT_EPOCH":6561,"BSTAR":0.00067233359,"MEAN_MOTION_DOT":0.00019457,"MEAN_MOTION_DDOT":0}]
